ONEWEB-0589             
1 54655U 22166P   25226.24770538  .00000154  00000+0  34131-3 0  9999
2 54655  87.9259 305.2361 0002732 110.8360 249.3066 13.21826981130993
ONEWEB-0590             
1 54656U 22166Q   25226.64968336  .00000044  00000+0  74366-4 0  9992
2 54656  87.9255 305.1332 0001822 111.6527 248.4801 13.21823596131032
ONEWEB-0591             
1 54657U 22166R   25226.66245446  .00000039  00000+0  62808-4 0  9997
2 54657  87.9258 305.1540 0002113 101.6747 258.4624 13.21826989131060
ONEWEB-0592             
1 54658U 22166S   25226.51421826  .00000042  00000+0  70924-4 0  9992
2 54658  87.9265 305.1362 0002078 102.4606 257.6761 13.21827109130926
ONEWEB-0593             
1 54659U 22166T   25226.46217388  .00000152  00000+0  33635-3 0  9992
2 54659  87.9257 305.1839 0002177 101.4563 258.6816 13.21827751131025
ONEWEB-0594             
1 54660U 22166U   25226.48110337  .00000078  00000+0  15708-3 0  9990
2 54660  87.9261 305.1956 0002031  96.2132 263.9233 13.21826381131046
ONEWEB-0595             
1 54661U 22166V   25226.68610201  .00000011  00000+0 -53374-5 0  9999
2 54661  87.9258 305.1309 0001818  98.0727 262.0613 13.21827136131048
ONEWEB-0596             
1 54662U 22166W   25226.65929709  .00000043  00000+0  71848-4 0  9992
2 54662  87.9261 305.1509 0001945 100.4178 259.7175 13.21827087131045
